{
  "type": "FeatureCollection",
  "features": [
    {
      "type": "Feature",
      "properties": {
        "norad_id": 40938,
        "name": "BEIDOU-3S IGSO-2S (C56)",
        "group": "gnss",
        "lat": -49.51176344918859,
        "lon": 169.17227152187365,
        "alt_km": 35747.71058639892,
        "timestamp": "2025-12-23T22:42:33.226903+00:00",
        "meta_object_name": "BEIDOU-3S IGSO-2S (C56)",
        "meta_object_id": "2015-053A",
        "meta_epoch": "2025-12-22T18:37:28.318944",
        "meta_mean_motion": 1.00268056,
        "meta_eccentricity": 0.00606366,
        "meta_inclination": 49.495,
        "meta_ra_of_asc_node": 260.888,
        "meta_arg_of_pericenter": 188.7154,
        "meta_mean_anomaly": 17.1653,
        "meta_ephemeris_type": 0,
        "meta_classification_type": "U",
        "meta_norad_cat_id": 40938,
        "meta_element_set_no": 999,
        "meta_rev_at_epoch": 3758,
        "meta_bstar": 0,
        "meta_mean_motion_dot": -1.06e-06,
        "meta_mean_motion_ddot": 0,
        "tle_line1": "1 40938U 15053A   25356.77602221 -.00000106  00000+0  00000+0 0  9992",
        "tle_line2": "2 40938  49.4950 260.8880 0060636 188.7154  17.1653  1.00268056 37588"
      },
      "geometry": {
        "type": "Point",
        "coordinates": [
          169.17227152187365,
          -49.51176344918859
        ]
      }
    },
    {
      "type": "Feature",
      "properties": {
        "norad_id": 41019,
        "name": "GPS BIIF-11 (PRN 10)",
        "group": "gnss",
        "lat": 47.12451466661594,
        "lon": 172.84931584540539,
        "alt_km": 20281.339042298965,
        "timestamp": "2025-12-23T22:42:33.226915+00:00",
        "meta_object_name": "GPS BIIF-11 (PRN 10)",
        "meta_object_id": "2015-062A",
        "meta_epoch": "2025-12-22T06:47:19.515264",
        "meta_mean_motion": 2.00567132,
        "meta_eccentricity": 0.01110491,
        "meta_inclination": 56.8391,
        "meta_ra_of_asc_node": 37.6333,
        "meta_arg_of_pericenter": 230.1993,
        "meta_mean_anomaly": 128.8844,
        "meta_ephemeris_type": 0,
        "meta_classification_type": "U",
        "meta_norad_cat_id": 41019,
        "meta_element_set_no": 999,
        "meta_rev_at_epoch": 7428,
        "meta_bstar": 0,
        "meta_mean_motion_dot": -4.9e-07,
        "meta_mean_motion_ddot": 0,
        "tle_line1": "1 41019U 15062A   25356.28286476 -.00000049  00000+0  00000+0 0  9995",
        "tle_line2": "2 41019  56.8391  37.6333 0111049 230.1993 128.8844  2.00567132 74289"
      },
      "geometry": {
        "type": "Point",
        "coordinates": [
          172.84931584540539,
          47.12451466661594
        ]
      }
    },
    {
      "type": "Feature",
      "properties": {
        "norad_id": 41028,
        "name": "GSAT-15 (GAGAN/PRN 139)",
        "group": "gnss",
        "lat": -0.005716591243713848,
        "lon": 166.8471232123478,
        "alt_km": 35783.070979295204,
        "timestamp": "2025-12-23T22:42:33.226926+00:00",
        "meta_object_name": "GSAT-15 (GAGAN/PRN 139)",
        "meta_object_id": "2015-065A",
        "meta_epoch": "2025-12-23T03:18:20.367936",
        "meta_mean_motion": 1.00272117,
        "meta_eccentricity": 0.00023364,
        "meta_inclination": 0.023,
        "meta_ra_of_asc_node": 274.8168,
        "meta_arg_of_pericenter": 324.0719,
        "meta_mean_anomaly": 356.1393,
        "meta_ephemeris_type": 0,
        "meta_classification_type": "U",
        "meta_norad_cat_id": 41028,
        "meta_element_set_no": 999,
        "meta_rev_at_epoch": 3703,
        "meta_bstar": 0,
        "meta_mean_motion_dot": -2.37e-06,
        "meta_mean_motion_ddot": 0,
        "tle_line1": "1 41028U 15065A   25357.13773574 -.00000237  00000+0  00000+0 0  9992",
        "tle_line2": "2 41028   0.0230 274.8168 0002336 324.0719 356.1393  1.00272117 37032"
      },
      "geometry": {
        "type": "Point",
        "coordinates": [
          166.8471232123478,
          -0.005716591243713848
        ]
      }
    },
    {
      "type": "Feature",
      "properties": {
        "norad_id": 41174,
        "name": "GSAT0209 (GALILEO 12)",
        "group": "gnss",
        "lat": -1.3835442345142173,
        "lon": -72.98385110049931,
        "alt_km": 23229.655055165247,
        "timestamp": "2025-12-23T22:42:33.226938+00:00",
        "meta_object_name": "GSAT0209 (GALILEO 12)",
        "meta_object_id": "2015-079A",
        "meta_epoch": "2025-12-21T21:22:17.332896",
        "meta_mean_motion": 1.70474556,
        "meta_eccentricity": 0.00025231,
        "meta_inclination": 55.7178,
        "meta_ra_of_asc_node": 106.13,
        "meta_arg_of_pericenter": 342.7574,
        "meta_mean_anomaly": 17.2091,
        "meta_ephemeris_type": 0,
        "meta_classification_type": "U",
        "meta_norad_cat_id": 41174,
        "meta_element_set_no": 999,
        "meta_rev_at_epoch": 6175,
        "meta_bstar": 0,
        "meta_mean_motion_dot": 5e-08,
        "meta_mean_motion_ddot": 0,
        "tle_line1": "1 41174U 15079A   25355.89047839  .00000005  00000+0  00000+0 0  9990",
        "tle_line2": "2 41174  55.7178 106.1300 0002523 342.7574  17.2091  1.70474556 61755"
      },
      "geometry": {
        "type": "Point",
        "coordinates": [
          -72.98385110049931,
          -1.3835442345142173
        ]
      }
    },
    {
      "type": "Feature",
      "properties": {
        "norad_id": 41175,
        "name": "GSAT0208 (GALILEO 11)",
        "group": "gnss",
        "lat": 36.86568295000025,
        "lon": 136.7851362148172,
        "alt_km": 23214.036005215195,
        "timestamp": "2025-12-23T22:42:33.226949+00:00",
        "meta_object_name": "GSAT0208 (GALILEO 11)",
        "meta_object_id": "2015-079B",
        "meta_epoch": "2025-12-20T08:25:16.296384",
        "meta_mean_motion": 1.70474393,
        "meta_eccentricity": 0.00018076,
        "meta_inclination": 55.7157,
        "meta_ra_of_asc_node": 106.1693,
        "meta_arg_of_pericenter": 359.1842,
        "meta_mean_anomaly": 0.7815,
        "meta_ephemeris_type": 0,
        "meta_classification_type": "U",
        "meta_norad_cat_id": 41175,
        "meta_element_set_no": 999,
        "meta_rev_at_epoch": 6214,
        "meta_bstar": 0,
        "meta_mean_motion_dot": -2e-08,
        "meta_mean_motion_ddot": 0,
        "tle_line1": "1 41175U 15079B   25354.35088306 -.00000002  00000+0  00000+0 0  9993",
        "tle_line2": "2 41175  55.7157 106.1693 0001807 359.1842   0.7815  1.70474393 62146"
      },
      "geometry": {
        "type": "Point",
        "coordinates": [
          136.7851362148172,
          36.86568295000025
        ]
      }
    },
    {
      "type": "Feature",
      "properties": {
        "norad_id": 41241,
        "name": "IRNSS-1E",
        "group": "gnss",
        "lat": 27.23779015261076,
        "lon": -170.4759075183253,
        "alt_km": 35746.93724777416,
        "timestamp": "2025-12-23T22:42:33.226960+00:00",
        "meta_object_name": "IRNSS-1E",
        "meta_object_id": "2016-003A",
        "meta_epoch": "2025-12-20T14:57:09.230400",
        "meta_mean_motion": 1.00270447,
        "meta_eccentricity": 0.0021619,
        "meta_inclination": 32.8427,
        "meta_ra_of_asc_node": 62.3382,
        "meta_arg_of_pericenter": 188.6599,
        "meta_mean_anomaly": 174.4859,
        "meta_ephemeris_type": 0,
        "meta_classification_type": "U",
        "meta_norad_cat_id": 41241,
        "meta_element_set_no": 999,
        "meta_rev_at_epoch": 3629,
        "meta_bstar": 0,
        "meta_mean_motion_dot": -3e-06,
        "meta_mean_motion_ddot": 0,
        "tle_line1": "1 41241U 16003A   25354.62302350 -.00000300  00000+0  00000+0 0  9994",
        "tle_line2": "2 41241  32.8427  62.3382 0021619 188.6599 174.4859  1.00270447 36292"
      },
      "geometry": {
        "type": "Point",
        "coordinates": [
          -170.4759075183253,
          27.23779015261076
        ]
      }
    },
    {
      "type": "Feature",
      "properties": {
        "norad_id": 41328,
        "name": "GPS BIIF-12 (PRN 32)",
        "group": "gnss",
        "lat": 45.71079379204034,
        "lon": 141.35072489693147,
        "alt_km": 20422.435881389298,
        "timestamp": "2025-12-23T22:42:33.226972+00:00",
        "meta_object_name": "GPS BIIF-12 (PRN 32)",
        "meta_object_id": "2016-007A",
        "meta_epoch": "2025-12-21T08:50:32.363232",
        "meta_mean_motion": 2.00560305,
        "meta_eccentricity": 0.00925842,
        "meta_inclination": 55.4109,
        "meta_ra_of_asc_node": 96.5146,
        "meta_arg_of_pericenter": 243.788,
        "meta_mean_anomaly": 115.2562,
        "meta_ephemeris_type": 0,
        "meta_classification_type": "U",
        "meta_norad_cat_id": 41328,
        "meta_element_set_no": 999,
        "meta_rev_at_epoch": 7227,
        "meta_bstar": 0,
        "meta_mean_motion_dot": -8e-08,
        "meta_mean_motion_ddot": 0,
        "tle_line1": "1 41328U 16007A   25355.36843013 -.00000008  00000+0  00000+0 0  9997",
        "tle_line2": "2 41328  55.4109  96.5146 0092584 243.7880 115.2562  2.00560305 72276"
      },
      "geometry": {
        "type": "Point",
        "coordinates": [
          141.35072489693147,
          45.71079379204034
        ]
      }
    }
  ]
}